#dP2024 10 13 18  0  0.00000000      96 __u+U IGS20 EXT  IAC
## 2336  64800.00000000   900.00000000 60596 0.7500000000000
+   53   G02G03G04G05G06G07G08G09G10G11G12G13G14G15G16G17G18
+        G19G20G21G22G23G24G25G26G27G28G29G30G31G32R01R02R03
+        R04R05R07R08R09R11R12R14R15R16R17R18R19R20R21R22R24
+        R25R26  0  0  0  0  0  0  0  0  0  0  0  0  0  0  0
+          0  0  0  0  0  0  0  0  0  0  0  0  0  0  0  0  0
++         6  7  7  7  6  7  7  7  8  7  9  6  7  7  6  7  9
++         7  7  7  8  7  6  8  6  7  7  8  7  8  7  8  7  8
++         9  7  7  8  7  9 10  7  8  8  7  9  8 10  7  6  9
++         8  7  0  0  0  0  0  0  0  0  0  0  0  0  0  0  0
++         0  0  0  0  0  0  0  0  0  0  0  0  0  0  0  0  0
%c M  cc GPS ccc cccc cccc cccc cccc ccccc ccccc ccccc ccccc
%c cc cc ccc ccc cccc cccc cccc cccc ccccc ccccc ccccc ccccc
%f  0.0000000  0.000000000  0.00000000000  0.000000000000000
%f  0.0000000  0.000000000  0.00000000000  0.000000000000000
%i    0    0    0    0      0      0      0      0         0
%i    0    0    0    0      0      0      0      0         0
/* IAC                                ULTRA-RAPID PREDICTION
/* S/V CLOCKS ARE ALIGNED TO GNSS TIME                      
/* G:C1WC2W R:C1PC2P E:C1XC5X C:C2IC6I J:C1CC2S             
/* PCV:IGS20_2317 OL/AL:FES2004  NONE     YN ORB:CoN CLK:CoN
*  2024 10 14  3  0  0.00000000
PG02  13948.955985 -17167.942420  14915.737138   -337.567800
PG03  20259.841859 -12733.058921 -11573.853967    569.489948
PG04  10212.333794 -11199.184014 -21792.136183    461.283556
PG05 -25860.770385   4560.105745  -4394.690997   -189.719572
PG06  -7262.501582 -17539.920095 -18460.128882    -36.959533
PG07   5644.912205 -25623.809898   2442.359346    -27.906904
PG08  18718.582395   -626.707833  18880.501668    383.601353
PG09    112.123474 -18641.844495 -18986.705763    397.751735
PG10  11038.675631  11853.265667  21335.763701   -157.777516
PG11 -14908.054056  -2847.696429 -21757.463952   -743.718840
PG12 -23199.829202   9987.312793  -8418.179354   -544.973688
PG13 -19510.745901  -9118.277124  15469.576410    681.341039
PG14  -6768.256183 -14325.189956  21382.604781    517.052861
PG15 -18227.721194   3310.918057  18568.074516    215.478769
PG16  25559.375503   1799.876293  -8164.971045   -155.490571
PG17 -12318.463770 -22368.668553   7361.348074    596.189573
PG18  -5638.514131  25620.625144   3301.553305   -657.865496
PG19 -17671.319281 -20008.080470  -2467.359617    550.221438
PG20 -21999.541950  -1492.202432 -14624.648420    369.693052
PG21  15383.382498 -10830.936138  18695.173302     99.809929
PG22 -14427.289335 -11522.479390  19385.579468    -70.832981
PG23  -3986.094426  15687.095611  21040.994254    341.157556
PG24 -14326.680531  15758.710402  15160.224834   -484.829739
PG25 -12309.637261  16122.399309 -17354.271769    499.523682
PG26  18869.827860   7407.196344 -17515.288908     56.285551
PG27  21547.078997  10189.369464  11860.410468    -34.540396
PG28   7091.387976  19355.433376 -16762.097186   -445.085020
PG29  -3333.145133  17371.064321 -19816.297764   -571.403892
PG30  -1941.319747 -23789.357176  11513.290063   -302.833742
PG31  13582.351378   7856.937970 -21630.366268   -223.419778
PG32  15261.919427  21195.858809   5612.456704   -586.978375
PR01 -22611.101251 -11457.439055  -2883.755533    100.965157
PR02 -21175.794197  -3201.727023  13836.205837    -25.157704
PR03  -8148.509079   7968.430036  22854.019188    109.376941
PR04   8823.654057  14227.515801  19276.655293    259.169621
PR05  21160.607282  13213.230138   5402.402540    139.120310
PR07   7775.740016  -8140.251943 -22859.884313     92.886166
PR08  -9136.228787 -14231.966530 -19024.643305     -6.407140
PR09  21318.267774  -9560.581292 -10117.097374    214.578160
PR11   5744.263362 -15385.437832  19521.775662      9.345725
PR12 -12453.813859  -4114.629992  21899.745881     45.999809
PR14 -17880.019825  16829.896456  -6934.811723     27.075242
PR15  -4179.840530  14816.265422 -20321.641788     74.910786
PR16  12219.536771   4090.053158 -21997.246095     29.930785
PR17  -5309.466044  20106.586808 -14721.932206    130.560959
PR18   1929.520839  25441.740234    883.356192    166.770704
PR19   7169.485666  19525.617070  14761.589405   -294.771881
PR20  10356.916725  -1785.804101  23255.504814   -120.446299
PR21   5773.519218 -19517.153752  15405.822872   -142.582089
PR22  -1899.781773 -25352.896646  -2015.606959     21.455334
PR24 -10674.192726   2885.183110 -22962.830812    -75.917872
PR25   6101.452918 -20218.123377  14336.821025    -92.140992
PR26  -7663.858713 -13909.743468 -19951.051391     81.422496
*  2024 10 14  3 15  0.00000000
PG02  13828.094388 -15408.623482  16910.785871   -337.560406
PG03  21417.044575 -12880.520283  -8994.532008    569.500642
PG04  11936.812594  -9396.907058 -21780.497819    461.289660
PG05 -25319.526932   4164.338554  -7170.101621   -189.720659
PG06  -6620.975052 -19459.982665 -16689.976630    -36.984317
PG07   5969.268998 -25603.656464   -417.322524    -27.903842
PG08  20170.446131    873.531873  17361.439434    383.611773
PG09   1821.546370 -17208.873370 -20224.075935    397.766577
PG10   8712.731964  12525.891904  21994.837139   -157.789564
PG11 -14182.462909  -5238.388978 -21803.803981   -743.721551
PG12 -24008.151821   9911.669768  -5712.348168   -544.976051
PG13 -20401.430172 -10543.067588  13317.148896    681.342636
PG14  -4396.210442 -14944.640833  21557.065870    517.060419
PG15 -19867.629715   1929.212835  17076.262665    215.482775
PG16  24588.257939   2178.554037 -10718.915610   -155.481581
PG17 -11516.552318 -21819.226687  10003.419472    596.177950
PG18  -5918.709706  25762.172207    415.323993   -657.866744
PG19 -17576.635055 -20219.739225    369.799223    550.225665
PG20 -20462.431189  -2458.681196 -16596.806419    369.692703
PG21  15199.424862  -8658.764758  20054.332341     99.809194
PG22 -12269.329896 -12037.003846  20574.562115    -70.836033
PG23  -6246.186544  16302.569608  19975.877926    341.164899
PG24 -14279.978109  13806.370874  16984.202770   -484.828648
PG25 -14121.286186  16466.892163 -15492.452629    499.523583
PG26  17000.048017   8271.935882 -18961.214996     56.277079
PG27  22302.901485  11196.720627   9394.755295    -34.540617
PG28   6529.933199  21077.794659 -14795.718136   -445.096651
PG29  -4932.683815  15687.589653 -20872.190178   -571.401462
PG30  -1361.166049 -24848.083663   9041.352279   -302.827036
PG31  12872.173455  10151.128216 -21063.356844   -223.419276
PG32  14557.015140  20823.829253   8311.308494   -586.974417
PR01 -22155.639404 -11116.938544  -6034.981649    100.966278
PR02 -22635.978327  -3702.142289  11120.101522    -25.157903
PR03 -10699.221054   6892.862531  22133.915740    109.377590
PR04   6604.849903  13130.309946  20876.609358    259.171148
PR05  20453.104447  12700.616120   8479.365212    139.120834
PR07  10344.436646  -7053.743134 -22199.141610     92.886825
PR08  -6912.990430 -13169.955984 -20656.253163     -6.407021
PR09  20157.069042  -8734.232977 -12871.859870    214.580220
PR11   7519.885098 -16835.350778  17627.756251      9.344833
PR12 -10236.089657  -5730.776042  22673.535378     46.000182
PR14 -18339.195148  17324.898261  -3827.772209     27.075271
PR15  -6068.287518  16310.298237 -18633.433273     74.910422
PR16   9989.541523   5724.145979 -22748.258938     29.931075
PR17  -5383.741385  18135.578387 -17069.814061    130.563942
PR18   2125.773959  25329.836004  -2350.398897    166.772340
PR19   7448.805494  21172.077063  12114.339083   -294.773070
PR20  10530.640870   1077.665644  23223.496265   -120.447166
PR21   5828.626813 -17472.199645  17671.102550   -142.585016
PR22  -2050.014781 -25396.936871   1196.122632     21.445519
PR24 -10976.695079     59.121565 -23003.480914    -75.919252
PR25   6122.526390 -18302.546221  16704.746892    -92.137453
PR26  -5347.405621 -12831.726519 -21375.519646     81.449005
EOF
